ORBCOMM FM20 [+]        
1 25416U 98046D   23359.71395424  .00001267  00000+0  49260-3 0  9991
2 25416  44.9931 210.7754 0001014  48.8620 311.2314 14.34718024326729
ORBCOMM FM16 [-]        
1 25417U 98046E   23359.89581407  .00001880  00000+0  69597-3 0  9995
2 25417  44.9922 206.6115 0004288 102.8361 257.2966 14.35512067326670
ORBCOMM FM15 [-]        
1 25418U 98046F   23359.68836317  .00001733  00000+0  64862-3 0  9993
2 25418  44.9956 211.3434 0003893 100.4508 259.6778 14.35263345326650
ORBCOMM FM14 [-]        
1 25419U 98046G   23360.03542674  .00001751  00000+0  65321-3 0  9996
2 25419  44.9946 208.9802 0002905  87.1767  69.7141 14.35385571326887
ORBCOMM FM13 [+]        
1 25420U 98046H   23359.70977652  .00001476  00000+0  56503-3 0  9994
2 25420  44.9966 214.6853 0004917  86.6812 273.4597 14.34787142325686
ORBCOMM FM21 [-]        
1 25475U 98053A   23359.93594979  .00001736  00000+0  65567-3 0  9993
2 25475  45.0099 297.7824 0001768 340.2647  19.8131 14.34792216320062
ORBCOMM FM22 [-]        
1 25476U 98053B   23359.95817823  .00002023  00000+0  74988-3 0  9999
2 25476  45.0083 295.4597 0003279  11.9677 348.1248 14.35205915320087
ORBCOMM FM23 [-]        
1 25477U 98053C   23359.27010879  .00002057  00000+0  76808-3 0  9991
2 25477  45.0100 303.3726 0002633 355.3774   4.7049 14.34787129319787
