<?xml version="1.0" encoding="UTF-8"?>
<ndm xmlns:xsi="http://www.w3.org/2001/XMLSchema-instance" xsi:noNamespaceSchemaLocation="https://sanaregistry.org/r/ndmxml_unqualified/ndmxml-2.0.0-master-2.0.xsd">
<omm id="CCSDS_OMM_VERS" version="2.0">
<header><CREATION_DATE/><ORIGINATOR/></header><body><segment><metadata><OBJECT_NAME>ORBCOMM FM20 [+]</OBJECT_NAME><OBJECT_ID>1998-046D</OBJECT_ID><CENTER_NAME>EARTH</CENTER_NAME><REF_FRAME>TEME</REF_FRAME><TIME_SYSTEM>UTC</TIME_SYSTEM><MEAN_ELEMENT_THEORY>SGP4</MEAN_ELEMENT_THEORY></metadata><data><meanElements><EPOCH>2023-12-25T17:08:05.646336</EPOCH><MEAN_MOTION>14.34718024</MEAN_MOTION><ECCENTRICITY>.0001014</ECCENTRICITY><INCLINATION>44.9931</INCLINATION><RA_OF_ASC_NODE>210.7754</RA_OF_ASC_NODE><ARG_OF_PERICENTER>48.8620</ARG_OF_PERICENTER><MEAN_ANOMALY>311.2314</MEAN_ANOMALY></meanElements><tleParameters><EPHEMERIS_TYPE>0</EPHEMERIS_TYPE><CLASSIFICATION_TYPE>U</CLASSIFICATION_TYPE><NORAD_CAT_ID>25416</NORAD_CAT_ID><ELEMENT_SET_NO>999</ELEMENT_SET_NO><REV_AT_EPOCH>32672</REV_AT_EPOCH><BSTAR>.4926E-3</BSTAR><MEAN_MOTION_DOT>.1267E-4</MEAN_MOTION_DOT><MEAN_MOTION_DDOT>0</MEAN_MOTION_DDOT></tleParameters></data></segment></body></omm>
<omm id="CCSDS_OMM_VERS" version="2.0">
<header><CREATION_DATE/><ORIGINATOR/></header><body><segment><metadata><OBJECT_NAME>ORBCOMM FM16 [-]</OBJECT_NAME><OBJECT_ID>1998-046E</OBJECT_ID><CENTER_NAME>EARTH</CENTER_NAME><REF_FRAME>TEME</REF_FRAME><TIME_SYSTEM>UTC</TIME_SYSTEM><MEAN_ELEMENT_THEORY>SGP4</MEAN_ELEMENT_THEORY></metadata><data><meanElements><EPOCH>2023-12-25T21:29:58.335648</EPOCH><MEAN_MOTION>14.35512067</MEAN_MOTION><ECCENTRICITY>.0004288</ECCENTRICITY><INCLINATION>44.9922</INCLINATION><RA_OF_ASC_NODE>206.6115</RA_OF_ASC_NODE><ARG_OF_PERICENTER>102.8361</ARG_OF_PERICENTER><MEAN_ANOMALY>257.2966</MEAN_ANOMALY></meanElements><tleParameters><EPHEMERIS_TYPE>0</EPHEMERIS_TYPE><CLASSIFICATION_TYPE>U</CLASSIFICATION_TYPE><NORAD_CAT_ID>25417</NORAD_CAT_ID><ELEMENT_SET_NO>999</ELEMENT_SET_NO><REV_AT_EPOCH>32667</REV_AT_EPOCH><BSTAR>.69597E-3</BSTAR><MEAN_MOTION_DOT>.188E-4</MEAN_MOTION_DOT><MEAN_MOTION_DDOT>0</MEAN_MOTION_DDOT></tleParameters></data></segment></body></omm>
<omm id="CCSDS_OMM_VERS" version="2.0">
<header><CREATION_DATE/><ORIGINATOR/></header><body><segment><metadata><OBJECT_NAME>ORBCOMM FM15 [-]</OBJECT_NAME><OBJECT_ID>1998-046F</OBJECT_ID><CENTER_NAME>EARTH</CENTER_NAME><REF_FRAME>TEME</REF_FRAME><TIME_SYSTEM>UTC</TIME_SYSTEM><MEAN_ELEMENT_THEORY>SGP4</MEAN_ELEMENT_THEORY></metadata><data><meanElements><EPOCH>2023-12-25T16:31:14.577888</EPOCH><MEAN_MOTION>14.35263345</MEAN_MOTION><ECCENTRICITY>.0003893</ECCENTRICITY><INCLINATION>44.9956</INCLINATION><RA_OF_ASC_NODE>211.3434</RA_OF_ASC_NODE><ARG_OF_PERICENTER>100.4508</ARG_OF_PERICENTER><MEAN_ANOMALY>259.6778</MEAN_ANOMALY></meanElements><tleParameters><EPHEMERIS_TYPE>0</EPHEMERIS_TYPE><CLASSIFICATION_TYPE>U</CLASSIFICATION_TYPE><NORAD_CAT_ID>25418</NORAD_CAT_ID><ELEMENT_SET_NO>999</ELEMENT_SET_NO><REV_AT_EPOCH>32665</REV_AT_EPOCH><BSTAR>.64862E-3</BSTAR><MEAN_MOTION_DOT>.1733E-4</MEAN_MOTION_DOT><MEAN_MOTION_DDOT>0</MEAN_MOTION_DDOT></tleParameters></data></segment></body></omm>
<omm id="CCSDS_OMM_VERS" version="2.0">
<header><CREATION_DATE/><ORIGINATOR/></header><body><segment><metadata><OBJECT_NAME>ORBCOMM FM14 [-]</OBJECT_NAME><OBJECT_ID>1998-046G</OBJECT_ID><CENTER_NAME>EARTH</CENTER_NAME><REF_FRAME>TEME</REF_FRAME><TIME_SYSTEM>UTC</TIME_SYSTEM><MEAN_ELEMENT_THEORY>SGP4</MEAN_ELEMENT_THEORY></metadata><data><meanElements><EPOCH>2023-12-26T00:51:00.870336</EPOCH><MEAN_MOTION>14.35385571</MEAN_MOTION><ECCENTRICITY>.0002905</ECCENTRICITY><INCLINATION>44.9946</INCLINATION><RA_OF_ASC_NODE>208.9802</RA_OF_ASC_NODE><ARG_OF_PERICENTER>87.1767</ARG_OF_PERICENTER><MEAN_ANOMALY>69.7141</MEAN_ANOMALY></meanElements><tleParameters><EPHEMERIS_TYPE>0</EPHEMERIS_TYPE><CLASSIFICATION_TYPE>U</CLASSIFICATION_TYPE><NORAD_CAT_ID>25419</NORAD_CAT_ID><ELEMENT_SET_NO>999</ELEMENT_SET_NO><REV_AT_EPOCH>32688</REV_AT_EPOCH><BSTAR>.65321E-3</BSTAR><MEAN_MOTION_DOT>.1751E-4</MEAN_MOTION_DOT><MEAN_MOTION_DDOT>0</MEAN_MOTION_DDOT></tleParameters></data></segment></body></omm>
<omm id="CCSDS_OMM_VERS" version="2.0">
<header><CREATION_DATE/><ORIGINATOR/></header><body><segment><metadata><OBJECT_NAME>ORBCOMM FM13 [+]</OBJECT_NAME><OBJECT_ID>1998-046H</OBJECT_ID><CENTER_NAME>EARTH</CENTER_NAME><REF_FRAME>TEME</REF_FRAME><TIME_SYSTEM>UTC</TIME_SYSTEM><MEAN_ELEMENT_THEORY>SGP4</MEAN_ELEMENT_THEORY></metadata><data><meanElements><EPOCH>2023-12-25T17:02:04.691328</EPOCH><MEAN_MOTION>14.34787142</MEAN_MOTION><ECCENTRICITY>.0004917</ECCENTRICITY><INCLINATION>44.9966</INCLINATION><RA_OF_ASC_NODE>214.6853</RA_OF_ASC_NODE><ARG_OF_PERICENTER>86.6812</ARG_OF_PERICENTER><MEAN_ANOMALY>273.4597</MEAN_ANOMALY></meanElements><tleParameters><EPHEMERIS_TYPE>0</EPHEMERIS_TYPE><CLASSIFICATION_TYPE>U</CLASSIFICATION_TYPE><NORAD_CAT_ID>25420</NORAD_CAT_ID><ELEMENT_SET_NO>999</ELEMENT_SET_NO><REV_AT_EPOCH>32568</REV_AT_EPOCH><BSTAR>.56503E-3</BSTAR><MEAN_MOTION_DOT>.1476E-4</MEAN_MOTION_DOT><MEAN_MOTION_DDOT>0</MEAN_MOTION_DDOT></tleParameters></data></segment></body></omm>
<omm id="CCSDS_OMM_VERS" version="2.0">
<header><CREATION_DATE/><ORIGINATOR/></header><body><segment><metadata><OBJECT_NAME>ORBCOMM FM21 [-]</OBJECT_NAME><OBJECT_ID>1998-053A</OBJECT_ID><CENTER_NAME>EARTH</CENTER_NAME><REF_FRAME>TEME</REF_FRAME><TIME_SYSTEM>UTC</TIME_SYSTEM><MEAN_ELEMENT_THEORY>SGP4</MEAN_ELEMENT_THEORY></metadata><data><meanElements><EPOCH>2023-12-25T22:27:46.061856</EPOCH><MEAN_MOTION>14.34792216</MEAN_MOTION><ECCENTRICITY>.0001768</ECCENTRICITY><INCLINATION>45.0099</INCLINATION><RA_OF_ASC_NODE>297.7824</RA_OF_ASC_NODE><ARG_OF_PERICENTER>340.2647</ARG_OF_PERICENTER><MEAN_ANOMALY>19.8131</MEAN_ANOMALY></meanElements><tleParameters><EPHEMERIS_TYPE>0</EPHEMERIS_TYPE><CLASSIFICATION_TYPE>U</CLASSIFICATION_TYPE><NORAD_CAT_ID>25475</NORAD_CAT_ID><ELEMENT_SET_NO>999</ELEMENT_SET_NO><REV_AT_EPOCH>32006</REV_AT_EPOCH><BSTAR>.65567E-3</BSTAR><MEAN_MOTION_DOT>.1736E-4</MEAN_MOTION_DOT><MEAN_MOTION_DDOT>0</MEAN_MOTION_DDOT></tleParameters></data></segment></body></omm>
<omm id="CCSDS_OMM_VERS" version="2.0">
<header><CREATION_DATE/><ORIGINATOR/></header><body><segment><metadata><OBJECT_NAME>ORBCOMM FM22 [-]</OBJECT_NAME><OBJECT_ID>1998-053B</OBJECT_ID><CENTER_NAME>EARTH</CENTER_NAME><REF_FRAME>TEME</REF_FRAME><TIME_SYSTEM>UTC</TIME_SYSTEM><MEAN_ELEMENT_THEORY>SGP4</MEAN_ELEMENT_THEORY></metadata><data><meanElements><EPOCH>2023-12-25T22:59:46.599072</EPOCH><MEAN_MOTION>14.35205915</MEAN_MOTION><ECCENTRICITY>.0003279</ECCENTRICITY><INCLINATION>45.0083</INCLINATION><RA_OF_ASC_NODE>295.4597</RA_OF_ASC_NODE><ARG_OF_PERICENTER>11.9677</ARG_OF_PERICENTER><MEAN_ANOMALY>348.1248</MEAN_ANOMALY></meanElements><tleParameters><EPHEMERIS_TYPE>0</EPHEMERIS_TYPE><CLASSIFICATION_TYPE>U</CLASSIFICATION_TYPE><NORAD_CAT_ID>25476</NORAD_CAT_ID><ELEMENT_SET_NO>999</ELEMENT_SET_NO><REV_AT_EPOCH>32008</REV_AT_EPOCH><BSTAR>.74988E-3</BSTAR><MEAN_MOTION_DOT>.2023E-4</MEAN_MOTION_DOT><MEAN_MOTION_DDOT>0</MEAN_MOTION_DDOT></tleParameters></data></segment></body></omm>
<omm id="CCSDS_OMM_VERS" version="2.0">
<header><CREATION_DATE/><ORIGINATOR/></header><body><segment><metadata><OBJECT_NAME>ORBCOMM FM23 [-]</OBJECT_NAME><OBJECT_ID>1998-053C</OBJECT_ID><CENTER_NAME>EARTH</CENTER_NAME><REF_FRAME>TEME</REF_FRAME><TIME_SYSTEM>UTC</TIME_SYSTEM><MEAN_ELEMENT_THEORY>SGP4</MEAN_ELEMENT_THEORY></metadata><data><meanElements><EPOCH>2023-12-25T06:28:57.399456</EPOCH><MEAN_MOTION>14.34787129</MEAN_MOTION><ECCENTRICITY>.0002633</ECCENTRICITY><INCLINATION>45.0100</INCLINATION><RA_OF_ASC_NODE>303.3726</RA_OF_ASC_NODE><ARG_OF_PERICENTER>355.3774</ARG_OF_PERICENTER><MEAN_ANOMALY>4.7049</MEAN_ANOMALY></meanElements><tleParameters><EPHEMERIS_TYPE>0</EPHEMERIS_TYPE><CLASSIFICATION_TYPE>U</CLASSIFICATION_TYPE><NORAD_CAT_ID>25477</NORAD_CAT_ID><ELEMENT_SET_NO>999</ELEMENT_SET_NO><REV_AT_EPOCH>31978</REV_AT_EPOCH><BSTAR>.76808E-3</BSTAR><MEAN_MOTION_DOT>.2057E-4</MEAN_MOTION_DOT><MEAN_MOTION_DDOT>0</MEAN_MOTION_DDOT></tleParameters></data></segment></body></omm>

</ndm>
